[{"OBJECT_NAME":"STARLINK-4337","OBJECT_ID":"2022-077L","EPOCH":"2026-03-09T22:58:53.318784","MEAN_MOTION":15.01260784,"ECCENTRICITY":0.00014702,"INCLINATION":97.6023,"RA_OF_ASC_NODE":250.4841,"ARG_OF_PERICENTER":88.4337,"MEAN_ANOMALY":271.7056,"EPHEMERIS_TYPE":0,"CLASSIFICATION_TYPE":"U","NORAD_CAT_ID":53053,"ELEMENT_SET_NO":999,"REV_AT_EPOCH":20095,"BSTAR":4.005131e-6,"MEAN_MOTION_DOT":-7.0e-8,"MEAN_MOTION_DDOT":0},{"OBJECT_NAME":"COSMOS 397 DEB","OBJECT_ID":"1971-015AM","EPOCH":"2026-03-09T10:35:37.503456","MEAN_MOTION":13.78905525,"ECCENTRICITY":0.05800552,"INCLINATION":65.645,"RA_OF_ASC_NODE":106.5344,"ARG_OF_PERICENTER":135.5672,"MEAN_ANOMALY":229.3475,"EPHEMERIS_TYPE":0,"CLASSIFICATION_TYPE":"U","NORAD_CAT_ID":5187,"ELEMENT_SET_NO":999,"REV_AT_EPOCH":65826,"BSTAR":0.00070809772,"MEAN_MOTION_DOT":2.512e-5,"MEAN_MOTION_DDOT":0}]
